[{"OBJECT_NAME":"STARLINK-32322","OBJECT_ID":"2024-196P","EPOCH":"2026-01-18T22:18:20.438208","MEAN_MOTION":15.30199722,"ECCENTRICITY":0.00013127,"INCLINATION":53.1616,"RA_OF_ASC_NODE":332.7894,"ARG_OF_PERICENTER":80.3902,"MEAN_ANOMALY":279.7247,"EPHEMERIS_TYPE":0,"CLASSIFICATION_TYPE":"U","NORAD_CAT_ID":61720,"ELEMENT_SET_NO":999,"REV_AT_EPOCH":6953,"BSTAR":4.7362173e-5,"MEAN_MOTION_DOT":1.044e-5,"MEAN_MOTION_DDOT":0},{"OBJECT_NAME":"STARLINK-32469","OBJECT_ID":"2024-196Q","EPOCH":"2026-01-18T21:08:26.145024","MEAN_MOTION":15.30200464,"ECCENTRICITY":0.00011436,"INCLINATION":53.1628,"RA_OF_ASC_NODE":332.4801,"ARG_OF_PERICENTER":85.3094,"MEAN_ANOMALY":274.8037,"EPHEMERIS_TYPE":0,"CLASSIFICATION_TYPE":"U","NORAD_CAT_ID":61721,"ELEMENT_SET_NO":999,"REV_AT_EPOCH":6953,"BSTAR":4.7072977e-5,"MEAN_MOTION_DOT":1.035e-5,"MEAN_MOTION_DDOT":0},{"OBJECT_NAME":"STARLINK-32438","OBJECT_ID":"2024-196R","EPOCH":"2026-01-18T14:18:58.135680","MEAN_MOTION":15.30193661,"ECCENTRICITY":0.00012465,"INCLINATION":53.164,"RA_OF_ASC_NODE":334.2667,"ARG_OF_PERICENTER":86.4959,"MEAN_ANOMALY":273.6184,"EPHEMERIS_TYPE":0,"CLASSIFICATION_TYPE":"U","NORAD_CAT_ID":61722,"ELEMENT_SET_NO":999,"REV_AT_EPOCH":6948,"BSTAR":-7.464944e-6,"MEAN_MOTION_DOT":-5.8e-6,"MEAN_MOTION_DDOT":0},{"OBJECT_NAME":"STARLINK-32540","OBJECT_ID":"2024-196S","EPOCH":"2026-01-18T22:09:09.312480","MEAN_MOTION":15.30198845,"ECCENTRICITY":0.00011608,"INCLINATION":53.1574,"RA_OF_ASC_NODE":296.6895,"ARG_OF_PERICENTER":51.5025,"MEAN_ANOMALY":308.608,"EPHEMERIS_TYPE":0,"CLASSIFICATION_TYPE":"U","NORAD_CAT_ID":61723,"ELEMENT_SET_NO":999,"REV_AT_EPOCH":7003,"BSTAR":0.00010149555,"MEAN_MOTION_DOT":2.648e-5,"MEAN_MOTION_DDOT":0},{"OBJECT_NAME":"STARLINK-32528","OBJECT_ID":"2024-196T","EPOCH":"2026-01-18T14:32:40.484832","MEAN_MOTION":15.30172219,"ECCENTRICITY":0.0001344,"INCLINATION":53.1631,"RA_OF_ASC_NODE":334.3256,"ARG_OF_PERICENTER":82.0663,"MEAN_ANOMALY":278.049,"EPHEMERIS_TYPE":0,"CLASSIFICATION_TYPE":"U","NORAD_CAT_ID":61724,"ELEMENT_SET_NO":999,"REV_AT_EPOCH":6828,"BSTAR":-5.5600257e-5,"MEAN_MOTION_DOT":-2.004e-5,"MEAN_MOTION_DDOT":0},{"OBJECT_NAME":"STARLINK-32573","OBJECT_ID":"2024-196U","EPOCH":"2026-01-18T20:21:29.831616","MEAN_MOTION":15.30179072,"ECCENTRICITY":0.00012001,"INCLINATION":53.1615,"RA_OF_ASC_NODE":332.99,"ARG_OF_PERICENTER":115.0726,"MEAN_ANOMALY":245.0399,"EPHEMERIS_TYPE":0,"CLASSIFICATION_TYPE":"U","NORAD_CAT_ID":61725,"ELEMENT_SET_NO":999,"REV_AT_EPOCH":6952,"BSTAR":0.00013187146,"MEAN_MOTION_DOT":3.546e-5,"MEAN_MOTION_DDOT":0},{"OBJECT_NAME":"STARLINK-32478","OBJECT_ID":"2024-196V","EPOCH":"2026-01-18T06:04:23.501856","MEAN_MOTION":15.30184975,"ECCENTRICITY":0.00013231,"INCLINATION":53.1599,"RA_OF_ASC_NODE":335.6752,"ARG_OF_PERICENTER":94.7824,"MEAN_ANOMALY":265.3328,"EPHEMERIS_TYPE":0,"CLASSIFICATION_TYPE":"U","NORAD_CAT_ID":61726,"ELEMENT_SET_NO":999,"REV_AT_EPOCH":6943,"BSTAR":-1.9318696e-5,"MEAN_MOTION_DOT":-9.31e-6,"MEAN_MOTION_DDOT":0},{"OBJECT_NAME":"STARLINK-32511","OBJECT_ID":"2024-196W","EPOCH":"2026-01-18T13:45:32.531616","MEAN_MOTION":15.30192644,"ECCENTRICITY":0.00020399,"INCLINATION":53.1625,"RA_OF_ASC_NODE":334.1166,"ARG_OF_PERICENTER":84.533,"MEAN_ANOMALY":275.5903,"EPHEMERIS_TYPE":0,"CLASSIFICATION_TYPE":"U","NORAD_CAT_ID":61727,"ELEMENT_SET_NO":999,"REV_AT_EPOCH":6948,"BSTAR":9.143762e-6,"MEAN_MOTION_DOT":-8.9e-7,"MEAN_MOTION_DDOT":0},{"OBJECT_NAME":"STARLINK-32475","OBJECT_ID":"2024-196X","EPOCH":"2026-01-18T21:26:38.154624","MEAN_MOTION":15.30224515,"ECCENTRICITY":0.00011407,"INCLINATION":53.1606,"RA_OF_ASC_NODE":332.5585,"ARG_OF_PERICENTER":92.8681,"MEAN_ANOMALY":267.2451,"EPHEMERIS_TYPE":0,"CLASSIFICATION_TYPE":"U","NORAD_CAT_ID":61728,"ELEMENT_SET_NO":999,"REV_AT_EPOCH":6953,"BSTAR":9.60557e-5,"MEAN_MOTION_DOT":2.489e-5,"MEAN_MOTION_DDOT":0},{"OBJECT_NAME":"STARLINK-32442","OBJECT_ID":"2024-196Y","EPOCH":"2026-01-18T21:31:13.765440","MEAN_MOTION":15.30204858,"ECCENTRICITY":0.00011611,"INCLINATION":53.1638,"RA_OF_ASC_NODE":332.5775,"ARG_OF_PERICENTER":84.4375,"MEAN_ANOMALY":275.6759,"EPHEMERIS_TYPE":0,"CLASSIFICATION_TYPE":"U","NORAD_CAT_ID":61729,"ELEMENT_SET_NO":999,"REV_AT_EPOCH":6953,"BSTAR":6.1634192e-5,"MEAN_MOTION_DOT":1.467e-5,"MEAN_MOTION_DDOT":0},{"OBJECT_NAME":"STARLINK-32362","OBJECT_ID":"2024-202A","EPOCH":"2026-01-18T18:35:36.005856","MEAN_MOTION":15.27565718,"ECCENTRICITY":0.00011335,"INCLINATION":43.001,"RA_OF_ASC_NODE":148.6487,"ARG_OF_PERICENTER":275.5272,"MEAN_ANOMALY":84.545,"EPHEMERIS_TYPE":0,"CLASSIFICATION_TYPE":"U","NORAD_CAT_ID":61845,"ELEMENT_SET_NO":999,"REV_AT_EPOCH":6841,"BSTAR":-5.9279303e-5,"MEAN_MOTION_DOT":-1.892e-5,"MEAN_MOTION_DDOT":0},{"OBJECT_NAME":"STARLINK-32472","OBJECT_ID":"2024-202B","EPOCH":"2026-01-18T08:33:50.988096","MEAN_MOTION":15.2757341,"ECCENTRICITY":9.512e-5,"INCLINATION":43.0022,"RA_OF_ASC_NODE":151.5373,"ARG_OF_PERICENTER":258.7572,"MEAN_ANOMALY":101.3173,"EPHEMERIS_TYPE":0,"CLASSIFICATION_TYPE":"U","NORAD_CAT_ID":61846,"ELEMENT_SET_NO":999,"REV_AT_EPOCH":6775,"BSTAR":1.9654532e-5,"MEAN_MOTION_DOT":2.79e-6,"MEAN_MOTION_DDOT":0},{"OBJECT_NAME":"STARLINK-32352","OBJECT_ID":"2024-202C","EPOCH":"2026-01-18T15:19:52.418496","MEAN_MOTION":15.2757759,"ECCENTRICITY":0.00014984,"INCLINATION":43.0032,"RA_OF_ASC_NODE":149.3493,"ARG_OF_PERICENTER":270.6018,"MEAN_ANOMALY":89.4662,"EPHEMERIS_TYPE":0,"CLASSIFICATION_TYPE":"U","NORAD_CAT_ID":61847,"ELEMENT_SET_NO":999,"REV_AT_EPOCH":6781,"BSTAR":4.392941e-6,"MEAN_MOTION_DOT":-1.41e-6,"MEAN_MOTION_DDOT":0},{"OBJECT_NAME":"STARLINK-32427","OBJECT_ID":"2024-202D","EPOCH":"2026-01-18T18:50:23.307936","MEAN_MOTION":15.27576654,"ECCENTRICITY":0.00012327,"INCLINATION":43.0014,"RA_OF_ASC_NODE":148.7256,"ARG_OF_PERICENTER":266.2318,"MEAN_ANOMALY":93.8393,"EPHEMERIS_TYPE":0,"CLASSIFICATION_TYPE":"U","NORAD_CAT_ID":61848,"ELEMENT_SET_NO":999,"REV_AT_EPOCH":6782,"BSTAR":-1.233928e-6,"MEAN_MOTION_DOT":-2.96e-6,"MEAN_MOTION_DDOT":0},{"OBJECT_NAME":"STARLINK-32346","OBJECT_ID":"2024-202E","EPOCH":"2026-01-18T17:21:47.223936","MEAN_MOTION":15.27572218,"ECCENTRICITY":0.00013364,"INCLINATION":43.0016,"RA_OF_ASC_NODE":149.1243,"ARG_OF_PERICENTER":266.0844,"MEAN_ANOMALY":93.9855,"EPHEMERIS_TYPE":0,"CLASSIFICATION_TYPE":"U","NORAD_CAT_ID":61849,"ELEMENT_SET_NO":999,"REV_AT_EPOCH":6781,"BSTAR":-1.922456e-5,"MEAN_MOTION_DOT":-7.91e-6,"MEAN_MOTION_DDOT":0},{"OBJECT_NAME":"STARLINK-32330","OBJECT_ID":"2024-202F","EPOCH":"2026-01-18T17:54:51.109632","MEAN_MOTION":15.27575785,"ECCENTRICITY":0.00011914,"INCLINATION":43.0006,"RA_OF_ASC_NODE":159.6822,"ARG_OF_PERICENTER":265.1669,"MEAN_ANOMALY":94.9047,"EPHEMERIS_TYPE":0,"CLASSIFICATION_TYPE":"U","NORAD_CAT_ID":61850,"ELEMENT_SET_NO":999,"REV_AT_EPOCH":6770,"BSTAR":-3.9826987e-5,"MEAN_MOTION_DOT":-1.358e-5,"MEAN_MOTION_DDOT":0}]
