STARLINK-32322          
1 61720U 24196P   26018.92940322  .00001044  00000+0  47362-4 0  9990
2 61720  53.1616 332.7894 0001312  80.3902 279.7247 15.30199722 69535
STARLINK-32469          
1 61721U 24196Q   26018.88085816  .00001035  00000+0  47073-4 0  9993
2 61721  53.1628 332.4801 0001143  85.3094 274.8037 15.30200464 69532
STARLINK-32438          
1 61722U 24196R   26018.59650620 -.00000580  00000+0 -74649-5 0  9999
2 61722  53.1640 334.2667 0001246  86.4959 273.6184 15.30193661 69487
STARLINK-32540          
1 61723U 24196S   26018.92302445  .00002648  00000+0  10150-3 0  9996
2 61723  53.1574 296.6895 0001160  51.5025 308.6080 15.30198845 70036
STARLINK-32528          
1 61724U 24196T   26018.60602413 -.00002004  00000+0 -55600-4 0  9998
2 61724  53.1631 334.3256 0001344  82.0663 278.0490 15.30172219 68289
STARLINK-32573          
1 61725U 24196U   26018.84826194  .00003546  00000+0  13187-3 0  9992
2 61725  53.1615 332.9900 0001200 115.0726 245.0399 15.30179072 69524
STARLINK-32478          
1 61726U 24196V   26018.25304979 -.00000931  00000+0 -19319-4 0  9991
2 61726  53.1599 335.6752 0001323  94.7824 265.3328 15.30184975 69434
STARLINK-32511          
1 61727U 24196W   26018.57329319 -.00000089  00000+0  91438-5 0  9998
2 61727  53.1625 334.1166 0002039  84.5330 275.5903 15.30192644 69481
STARLINK-32475          
1 61728U 24196X   26018.89349716  .00002489  00000+0  96056-4 0  9992
2 61728  53.1606 332.5585 0001140  92.8681 267.2451 15.30224515 69536
STARLINK-32442          
1 61729U 24196Y   26018.89668710  .00001467  00000+0  61634-4 0  9990
2 61729  53.1638 332.5775 0001161  84.4375 275.6759 15.30204858 69535
STARLINK-32362          
1 61845U 24202A   26018.77472229 -.00001892  00000+0 -59279-4 0  9998
2 61845  43.0010 148.6487 0001133 275.5272  84.5450 15.27565718 68412
STARLINK-32472          
1 61846U 24202B   26018.35684014  .00000279  00000+0  19655-4 0  9990
2 61846  43.0022 151.5373 0000951 258.7572 101.3173 15.27573410 67750
STARLINK-32352          
1 61847U 24202C   26018.63880114 -.00000141  00000+0  43929-5 0  9992
2 61847  43.0032 149.3493 0001498 270.6018  89.4662 15.27577590 67814
STARLINK-32427          
1 61848U 24202D   26018.78499199 -.00000296  00000+0 -12339-5 0  9991
2 61848  43.0014 148.7256 0001232 266.2318  93.8393 15.27576654 67826
STARLINK-32346          
1 61849U 24202E   26018.72346324 -.00000791  00000+0 -19225-4 0  9997
2 61849  43.0016 149.1243 0001336 266.0844  93.9855 15.27572218 67812
STARLINK-32330          
1 61850U 24202F   26018.74642488 -.00001358  00000+0 -39827-4 0  9991
2 61850  43.0006 159.6822 0001191 265.1669  94.9047 15.27575785 67700
